[{"OBJECT_NAME":"ONEWEB-0559","OBJECT_ID":"2023-043Q","EPOCH":"2026-04-12T02:56:02.298912","MEAN_MOTION":13.21829118,"ECCENTRICITY":0.0001947,"INCLINATION":87.9192,"RA_OF_ASC_NODE":257.1319,"ARG_OF_PERICENTER":92.2106,"MEAN_ANOMALY":267.9251,"EPHEMERIS_TYPE":0,"CLASSIFICATION_TYPE":"U","NORAD_CAT_ID":56060,"ELEMENT_SET_NO":999,"REV_AT_EPOCH":14952,"BSTAR":-0.0022452,"MEAN_MOTION_DOT":-9.14e-06,"MEAN_MOTION_DDOT":0.0},{"OBJECT_NAME":"ONEWEB-0566","OBJECT_ID":"2023-043R","EPOCH":"2026-04-12T04:35:21.400224","MEAN_MOTION":13.21826245,"ECCENTRICITY":0.0001999,"INCLINATION":87.9191,"RA_OF_ASC_NODE":257.1169,"ARG_OF_PERICENTER":89.6892,"MEAN_ANOMALY":270.4471,"EPHEMERIS_TYPE":0,"CLASSIFICATION_TYPE":"U","NORAD_CAT_ID":56061,"ELEMENT_SET_NO":999,"REV_AT_EPOCH":14951,"BSTAR":-7.3296e-05,"MEAN_MOTION_DOT":-1.7e-07,"MEAN_MOTION_DDOT":0.0},{"OBJECT_NAME":"ONEWEB-0568","OBJECT_ID":"2023-043S","EPOCH":"2026-04-12T02:55:04.289952","MEAN_MOTION":13.16593531,"ECCENTRICITY":0.0001537,"INCLINATION":87.9054,"RA_OF_ASC_NODE":241.8973,"ARG_OF_PERICENTER":104.5743,"MEAN_ANOMALY":255.5559,"EPHEMERIS_TYPE":0,"CLASSIFICATION_TYPE":"U","NORAD_CAT_ID":56062,"ELEMENT_SET_NO":999,"REV_AT_EPOCH":15028,"BSTAR":-8.1026e-05,"MEAN_MOTION_DOT":-1.8e-07,"MEAN_MOTION_DDOT":0.0},{"OBJECT_NAME":"ONEWEB-0574","OBJECT_ID":"2023-043T","EPOCH":"2026-04-12T04:25:40.395648","MEAN_MOTION":13.21824071,"ECCENTRICITY":0.0001786,"INCLINATION":87.9205,"RA_OF_ASC_NODE":257.1151,"ARG_OF_PERICENTER":104.8769,"MEAN_ANOMALY":255.2563,"EPHEMERIS_TYPE":0,"CLASSIFICATION_TYPE":"U","NORAD_CAT_ID":56063,"ELEMENT_SET_NO":999,"REV_AT_EPOCH":14955,"BSTAR":8.617700000000001e-05,"MEAN_MOTION_DOT":4.9e-07,"MEAN_MOTION_DDOT":0.0},{"OBJECT_NAME":"ONEWEB-0575","OBJECT_ID":"2023-043U","EPOCH":"2026-04-12T02:45:56.265120","MEAN_MOTION":13.16592523,"ECCENTRICITY":0.000174,"INCLINATION":87.9054,"RA_OF_ASC_NODE":241.8952,"ARG_OF_PERICENTER":116.1401,"MEAN_ANOMALY":243.9909,"EPHEMERIS_TYPE":0,"CLASSIFICATION_TYPE":"U","NORAD_CAT_ID":56064,"ELEMENT_SET_NO":999,"REV_AT_EPOCH":15027,"BSTAR":-0.00020816,"MEAN_MOTION_DOT":-6.7e-07,"MEAN_MOTION_DDOT":0.0},{"OBJECT_NAME":"ONEWEB-0576","OBJECT_ID":"2023-043V","EPOCH":"2026-04-12T07:46:53.735520","MEAN_MOTION":13.1659373,"ECCENTRICITY":0.0001746,"INCLINATION":87.9063,"RA_OF_ASC_NODE":241.8588,"ARG_OF_PERICENTER":109.0748,"MEAN_ANOMALY":251.0572,"EPHEMERIS_TYPE":0,"CLASSIFICATION_TYPE":"U","NORAD_CAT_ID":56065,"ELEMENT_SET_NO":999,"REV_AT_EPOCH":15029,"BSTAR":6.5426e-05,"MEAN_MOTION_DOT":3.8e-07,"MEAN_MOTION_DDOT":0.0},{"OBJECT_NAME":"ONEWEB-0577","OBJECT_ID":"2023-043W","EPOCH":"2026-04-12T02:27:42.149952","MEAN_MOTION":13.16593717,"ECCENTRICITY":0.0002042,"INCLINATION":87.9059,"RA_OF_ASC_NODE":241.901,"ARG_OF_PERICENTER":124.8707,"MEAN_ANOMALY":235.2616,"EPHEMERIS_TYPE":0,"CLASSIFICATION_TYPE":"U","NORAD_CAT_ID":56066,"ELEMENT_SET_NO":999,"REV_AT_EPOCH":15029,"BSTAR":-8.3484e-05,"MEAN_MOTION_DOT":-1.9e-07,"MEAN_MOTION_DDOT":0.0},{"OBJECT_NAME":"ONEWEB-0578","OBJECT_ID":"2023-043X","EPOCH":"2026-04-12T04:06:16.913376","MEAN_MOTION":13.21821574,"ECCENTRICITY":0.0001442,"INCLINATION":87.9194,"RA_OF_ASC_NODE":257.1206,"ARG_OF_PERICENTER":100.8458,"MEAN_ANOMALY":259.2838,"EPHEMERIS_TYPE":0,"CLASSIFICATION_TYPE":"U","NORAD_CAT_ID":56067,"ELEMENT_SET_NO":999,"REV_AT_EPOCH":14951,"BSTAR":1.0525e-05,"MEAN_MOTION_DOT":1.7e-07,"MEAN_MOTION_DDOT":0.0},{"OBJECT_NAME":"ONEWEB-0579","OBJECT_ID":"2023-043Y","EPOCH":"2026-04-12T03:54:12.568608","MEAN_MOTION":13.21822949,"ECCENTRICITY":0.0002132,"INCLINATION":87.9199,"RA_OF_ASC_NODE":257.1158,"ARG_OF_PERICENTER":96.0144,"MEAN_ANOMALY":264.1233,"EPHEMERIS_TYPE":0,"CLASSIFICATION_TYPE":"U","NORAD_CAT_ID":56068,"ELEMENT_SET_NO":999,"REV_AT_EPOCH":14952,"BSTAR":-9.9679e-05,"MEAN_MOTION_DOT":-2.8e-07,"MEAN_MOTION_DDOT":0.0},{"OBJECT_NAME":"ONEWEB-0581","OBJECT_ID":"2023-043Z","EPOCH":"2026-04-12T02:36:48.740544","MEAN_MOTION":13.16593308,"ECCENTRICITY":0.0002027,"INCLINATION":87.9058,"RA_OF_ASC_NODE":241.9116,"ARG_OF_PERICENTER":118.3463,"MEAN_ANOMALY":241.7873,"EPHEMERIS_TYPE":0,"CLASSIFICATION_TYPE":"U","NORAD_CAT_ID":56069,"ELEMENT_SET_NO":999,"REV_AT_EPOCH":15026,"BSTAR":-8.0172e-05,"MEAN_MOTION_DOT":-1.8e-07,"MEAN_MOTION_DDOT":0.0},{"OBJECT_NAME":"ONEWEB-0609","OBJECT_ID":"2023-043AA","EPOCH":"2026-04-12T03:55:36.697152","MEAN_MOTION":13.15542809,"ECCENTRICITY":0.0001709,"INCLINATION":87.8931,"RA_OF_ASC_NODE":272.3876,"ARG_OF_PERICENTER":92.544,"MEAN_ANOMALY":267.5887,"EPHEMERIS_TYPE":0,"CLASSIFICATION_TYPE":"U","NORAD_CAT_ID":56070,"ELEMENT_SET_NO":999,"REV_AT_EPOCH":14775,"BSTAR":0.00014389,"MEAN_MOTION_DOT":6.7e-07,"MEAN_MOTION_DDOT":0.0},{"OBJECT_NAME":"ONEWEB-0613","OBJECT_ID":"2023-043AB","EPOCH":"2026-04-12T03:52:11.706240","MEAN_MOTION":13.15547257,"ECCENTRICITY":0.0002001,"INCLINATION":87.8932,"RA_OF_ASC_NODE":272.4,"ARG_OF_PERICENTER":90.469,"MEAN_ANOMALY":269.667,"EPHEMERIS_TYPE":0,"CLASSIFICATION_TYPE":"U","NORAD_CAT_ID":56071,"ELEMENT_SET_NO":999,"REV_AT_EPOCH":14775,"BSTAR":0.00027909,"MEAN_MOTION_DOT":1.18e-06,"MEAN_MOTION_DDOT":0.0},{"OBJECT_NAME":"ONEWEB-0630","OBJECT_ID":"2023-043AC","EPOCH":"2026-04-12T05:34:51.860352","MEAN_MOTION":13.15547606,"ECCENTRICITY":0.0002004,"INCLINATION":87.8933,"RA_OF_ASC_NODE":272.3559,"ARG_OF_PERICENTER":91.9031,"MEAN_ANOMALY":268.2329,"EPHEMERIS_TYPE":0,"CLASSIFICATION_TYPE":"U","NORAD_CAT_ID":56072,"ELEMENT_SET_NO":999,"REV_AT_EPOCH":14775,"BSTAR":0.0005817600000000001,"MEAN_MOTION_DOT":2.32e-06,"MEAN_MOTION_DDOT":0.0},{"OBJECT_NAME":"ONEWEB-0632","OBJECT_ID":"2023-043AD","EPOCH":"2026-04-12T05:28:01.768800","MEAN_MOTION":13.15547697,"ECCENTRICITY":0.0001822,"INCLINATION":87.8933,"RA_OF_ASC_NODE":272.3748,"ARG_OF_PERICENTER":100.4773,"MEAN_ANOMALY":259.6563,"EPHEMERIS_TYPE":0,"CLASSIFICATION_TYPE":"U","NORAD_CAT_ID":56073,"ELEMENT_SET_NO":999,"REV_AT_EPOCH":14775,"BSTAR":0.00036799,"MEAN_MOTION_DOT":1.51e-06,"MEAN_MOTION_DDOT":0.0},{"OBJECT_NAME":"ONEWEB-0633","OBJECT_ID":"2023-043AE","EPOCH":"2026-04-12T05:18:52.508448","MEAN_MOTION":13.15550605,"ECCENTRICITY":0.0002026,"INCLINATION":87.894,"RA_OF_ASC_NODE":272.3462,"ARG_OF_PERICENTER":84.6137,"MEAN_ANOMALY":275.5225,"EPHEMERIS_TYPE":0,"CLASSIFICATION_TYPE":"U","NORAD_CAT_ID":56074,"ELEMENT_SET_NO":999,"REV_AT_EPOCH":14773,"BSTAR":0.00023571,"MEAN_MOTION_DOT":1.02e-06,"MEAN_MOTION_DDOT":0.0},{"OBJECT_NAME":"ONEWEB-0634","OBJECT_ID":"2023-043AF","EPOCH":"2026-04-12T04:58:21.721440","MEAN_MOTION":13.1554744,"ECCENTRICITY":0.0001473,"INCLINATION":87.8933,"RA_OF_ASC_NODE":272.3946,"ARG_OF_PERICENTER":89.924,"MEAN_ANOMALY":270.2059,"EPHEMERIS_TYPE":0,"CLASSIFICATION_TYPE":"U","NORAD_CAT_ID":56075,"ELEMENT_SET_NO":999,"REV_AT_EPOCH":14772,"BSTAR":-6.5018e-05,"MEAN_MOTION_DOT":-1.2e-07,"MEAN_MOTION_DDOT":0.0}]