ONEWEB-0559             
1 56060U 23043Q   26102.12224883 -.00000914  00000+0 -22452-2 0  9992
2 56060  87.9192 257.1319 0001947  92.2106 267.9251 13.21829118149523
ONEWEB-0566             
1 56061U 23043R   26102.19121991 -.00000017  00000+0 -73296-4 0  9994
2 56061  87.9191 257.1169 0001999  89.6892 270.4471 13.21826245149515
ONEWEB-0568             
1 56062U 23043S   26102.12157743 -.00000018  00000+0 -81026-4 0  9993
2 56062  87.9054 241.8973 0001537 104.5743 255.5559 13.16593531150287
ONEWEB-0574             
1 56063U 23043T   26102.18449532  .00000049  00000+0  86177-4 0  9994
2 56063  87.9205 257.1151 0001786 104.8769 255.2563 13.21824071149553
ONEWEB-0575             
1 56064U 23043U   26102.11523455 -.00000067  00000+0 -20816-3 0  9994
2 56064  87.9054 241.8952 0001740 116.1401 243.9909 13.16592523150271
ONEWEB-0576             
1 56065U 23043V   26102.32423305  .00000038  00000+0  65426-4 0  9994
2 56065  87.9063 241.8588 0001746 109.0748 251.0572 13.16593730150297
ONEWEB-0577             
1 56066U 23043W   26102.10257118 -.00000019  00000+0 -83484-4 0  9993
2 56066  87.9059 241.9010 0002042 124.8707 235.2616 13.16593717150292
ONEWEB-0578             
1 56067U 23043X   26102.17102909  .00000017  00000+0  10525-4 0  9990
2 56067  87.9194 257.1206 0001442 100.8458 259.2838 13.21821574149515
ONEWEB-0579             
1 56068U 23043Y   26102.16264547 -.00000028  00000+0 -99679-4 0  9998
2 56068  87.9199 257.1158 0002132  96.0144 264.1233 13.21822949149524
ONEWEB-0581             
1 56069U 23043Z   26102.10889746 -.00000018  00000+0 -80172-4 0  9994
2 56069  87.9058 241.9116 0002027 118.3463 241.7873 13.16593308150261
ONEWEB-0609             
1 56070U 23043AA  26102.16361918  .00000067  00000+0  14389-3 0  9996
2 56070  87.8931 272.3876 0001709  92.5440 267.5887 13.15542809147757
ONEWEB-0613             
1 56071U 23043AB  26102.16124660  .00000118  00000+0  27909-3 0  9997
2 56071  87.8932 272.4000 0002001  90.4690 269.6670 13.15547257147754
ONEWEB-0630             
1 56072U 23043AC  26102.23254468  .00000232  00000+0  58176-3 0  9993
2 56072  87.8933 272.3559 0002004  91.9031 268.2329 13.15547606147756
ONEWEB-0632             
1 56073U 23043AD  26102.22779825  .00000151  00000+0  36799-3 0  9999
2 56073  87.8933 272.3748 0001822 100.4773 259.6563 13.15547697147757
ONEWEB-0633             
1 56074U 23043AE  26102.22144107  .00000102  00000+0  23571-3 0  9999
2 56074  87.8940 272.3462 0002026  84.6137 275.5225 13.15550605147736
ONEWEB-0634             
1 56075U 23043AF  26102.20719585 -.00000012  00000+0 -65018-4 0  9991
2 56075  87.8933 272.3946 0001473  89.9240 270.2059 13.15547440147723
